#cP2009 12 31  0  0  0.00000000      96 ORBIT IGS05 HLM  IGS
## 1564 345600.00000000   900.00000000 55196 0.0000000000000
+   32   G01G02G03G04G05G06G07G08G09G10G11G12G13G14G15G16G17
+        G18G19G20G21G22G23G24G25G26G27G28G29G30G31G32  0  0
+          0  0  0  0  0  0  0  0  0  0  0  0  0  0  0  0  0
+          0  0  0  0  0  0  0  0  0  0  0  0  0  0  0  0  0
+          0  0  0  0  0  0  0  0  0  0  0  0  0  0  0  0  0
++         3  2  2  2  2  2  2  2  2  2  2  2  2  2  2  2  2
++         2  3  2  2  2  3  2  3  2  2  2  2  3  2  3  0  0
++         0  0  0  0  0  0  0  0  0  0  0  0  0  0  0  0  0
++         0  0  0  0  0  0  0  0  0  0  0  0  0  0  0  0  0
++         0  0  0  0  0  0  0  0  0  0  0  0  0  0  0  0  0
%c G  cc GPS ccc cccc cccc cccc cccc ccccc ccccc ccccc ccccc
%c cc cc ccc ccc cccc cccc cccc cccc ccccc ccccc ccccc ccccc
%f  1.2500000  1.025000000  0.00000000000  0.000000000000000
%f  0.0000000  0.000000000  0.00000000000  0.000000000000000
%i    0    0    0    0      0      0      0      0         0
%i    0    0    0    0      0      0      0      0         0
/* FINAL ORBIT COMBINATION FROM WEIGHTED AVERAGE OF:        
/* cod emr esa gfz grg jpl mit ngs sio                      
/* REFERENCED TO IGS TIME (IGST) AND TO WEIGHTED MEAN POLE: 
/* PCV:IGS05_1563 OL/AL:FES2004  NONE     Y  ORB:CMB CLK:CMB
*  2009 12 31 15  0  0.00000000
PG01 -19032.089028  15632.034232   9698.507005    -75.601741  7 11  6  84       
PG02 -13760.916359 -22751.715759  -3405.973415    210.118476  4  6  6 117       
PG03  18695.383348  11246.992594 -15726.883933    495.497796  5  7  7 127       
PG04  -4622.148209 -24542.765541   8312.616427   -434.216187  4  6  4 104       
PG05  -9554.385474 -12481.962393 -21415.495393    -21.821262  6  6  6 107       
PG06  15173.857056  13288.948347 -17155.726100    262.390630  7  7  7 137       
PG07  11487.182666 -10382.383351 -21569.514445      5.082709  7  7  7  97       
PG08   3482.871867 -20487.311864 -16242.243935      1.606521  5  5  3 105       
PG09 -17515.105494  -9424.425982  16965.675296     97.246624  4  7  7 127       
PG10  -5295.744368 -16687.686455 -20041.492371    -31.647593  6  4  6 141       
PG11  20103.086861   3402.407423  16941.975660    -37.211114  5  5    115       
PG12 -18370.333693   3469.553978  18870.366630   -169.198583  5  7  6  98       
PG13  21120.689116  -6541.570371 -14851.527323    306.650317  4  7  7  90       
PG14  -4801.883606  14099.593501  22121.041982     -5.499509  4  8  4 120       
PG15 -24061.673854  -7665.493359  -8365.288982   -315.759054  5  5  5 135       
PG16   3090.905471  17922.778868 -19217.270378    -25.458600  7  4  5 126       
PG17   3348.523149 -14963.912314  21756.151570    116.957847  5  6  5 123       
PG18 -17572.913449  19252.241992  -3661.916048     38.590397  8  7  5 125       
PG19  24461.549307   8596.806378  -6380.883134     -6.955315  8  9  7 117       
PG20  19422.314875  -8233.595255  15972.983175     64.311371  4  6  5 117       
PG21  -9171.013625  14918.127797 -19498.399081    -31.019965  6  4  6 127       
PG22 -10220.441507  23245.350885   7814.273010    182.661068  4  6  5 123       
PG23  26430.651390   -227.562398  -3976.506154    383.337425  6  8  7 152       
PG24 -16176.144281    -28.981284 -20920.972917    249.798457  6  5  2 118       
PG25  14468.995588  -4308.275964 -21488.984591     68.414243 11  8  7 126       
PG26 -15164.117740  10217.640173  18896.787287     -6.107569  5  6  2 131       
PG27 -18427.381666 -11393.768891  16114.941726    113.121508  6  7  8 116       
PG28  12022.567408 -22834.998858   5992.025352    -24.173775  8  7  6  88       
PG29 -23540.392954   5050.008988 -11078.013840     86.474123  7  9  8 123       
PG30 -18819.522868  14593.515852  11312.049092 999999.999999
PG31   6408.470827  24820.620437   6846.195645    -56.957104  4  6  6 143       
PG32  16917.897777   2231.996319  20638.105722    126.679842  7  7  8 143       
*  2009 12 31 15 15  0.00000000
PG01 -18532.193410  14445.090828  12175.797441    -75.604192  8 12  7 104       
PG02 -13617.082024 -23077.842537   -630.066282    210.122363  4  7  6 123       
PG03  16872.655558  11556.633143 -17473.395231    495.502634  6  6  7 115       
PG04  -3835.226543 -23671.778535  10842.448593   -434.233353  4  6  4  99       
PG05  -8188.391358 -14466.665469 -20713.288036    -21.815943  6  7  5 101       
PG06  13086.894007  13452.466140 -18655.762941    262.389657  7  7  7 122       
PG07  12631.807787  -8178.234513 -21889.353575      5.082029  7  7  7 118       
PG08   4376.960106 -18722.292600 -18100.617310      1.606975  5  5  3 112       
PG09 -18307.064621 -11198.904784  15018.021751     97.248455  4  7  8 127       
PG10  -3940.197327 -18423.724285 -18750.697824    -31.647408  6  5  6 139       
PG11  21111.057336   5032.941504  15285.567630    -37.212923  6  5     94       
PG12 -17229.461660   1556.820168  20172.334206   -169.193947  5  7  6  90       
PG13  22638.468419  -6236.630278 -12550.092098    306.650324  3  7  7 119       
PG14  -7253.090475  13822.542312  21608.357983     -5.495183  4  8  4 105       
PG15 -22948.983635  -7859.414811 -10906.885481   -315.757422  5  6  5 129       
PG16   1773.075763  19595.580527 -17671.299030    -25.462469  7  5  6 127       
PG17   5791.708708 -14737.144513  21374.871563    116.960914  5  6  5 130       
PG18 -17503.043522  18555.543708  -6416.138042     38.592961  7  6  5 130       
PG19  23559.603100   8707.914131  -9028.980308     -6.957167  8  8  7 114       
PG20  18569.583305  -6460.555012  17700.387089     64.310630  2  6  4  90       
PG21 -10332.514872  12851.213474 -20412.491006    -31.022050  5  4  6 139       
PG22 -10890.579716  23663.443053   5133.602139    182.659966  4  6  5 127       
PG23  26704.463764     -3.308800  -1141.630445    383.337019  5  8  7 152       
PG24 -17050.072981  -2240.306681 -20072.565127    249.801926  6  6  3 120       
PG25  15749.004251  -2161.521331 -20896.609882     68.422436 11  8  7 125       
PG26 -17287.873706   9883.514236  17266.537196     -6.110044  5  6  1 120       
PG27 -19116.575576 -12851.861708  13988.356586    113.125163  6  6  8 110       
PG28  12497.216478 -23084.160089   3164.911528    -24.173104  7  7  6 105       
PG29 -24651.766468   4721.088842  -8530.105495     86.476825  7  9  8 135       
PG30 -18263.979473  13195.319451  13629.928466 999999.999999
PG31   5813.094810  24098.758838   9531.118547    -56.956303  4  7  5 137       
PG32  15538.335685   4123.251370  21458.006295    126.672863  7  7  8 161       
*  2009 12 31 15 30  0.00000000
PG01 -17962.308196  12998.371091  14441.257188    -75.607166  8 13  7 155       
PG02 -13329.301185 -23144.614618   2156.387711    210.126317  5  7  6 124       
PG03  14890.439523  11974.363146 -18930.409139    495.505234  6  6  7 120       
PG04  -2869.098174 -22598.590044  13180.482202   -434.250243  3  6  4 110       
PG05  -6976.261538 -16433.776161 -19654.617348    -21.811594  6  7  6  80       
PG06  10856.821271  13723.241504 -19831.213891    262.388099  7  7  7 137       
PG07  13899.492208  -6026.960985 -21832.673861      5.081561  6  7  7  91       
PG08   5452.950864 -16839.064914 -19642.086688      1.606309  5  5  3  96       
PG09 -19065.448696 -12718.559704  12800.908299     97.249645  4  7  8 133       
PG10  -2757.451331 -20089.150605 -17138.012607    -31.648058  7  5  7 130       
PG11  22047.143530   6470.525950  13365.643404    -37.214833  5  5    106       
PG12 -16128.778295   -523.323530  21127.753165   -169.190030  4  6  6  86       
PG13  23899.720048  -6034.497938 -10034.253145    306.650282  2  8  7 100       
PG14  -9638.986621  13687.322080  20727.893243     -5.490947  4  8  4 118       
PG15 -21570.808528  -8115.977579 -13261.533367   -315.755712  5  6  5 133       
PG16    645.449622  21171.409072 -15817.304231    -25.466154  7  6  6 117       
PG17   8181.845404 -14638.718050  20627.485553    116.963841  5  7  5 123       
PG18 -17307.040749  17591.992901  -9056.643501     38.595267  7  6  4 124       
PG19  22375.322439   8845.722431 -11523.937412     -6.959087  7  7  7 136       
PG20  17718.973260  -4490.724550  19119.558570     64.310357  1  5  3 111       
PG21 -11626.461140  10771.369210 -20962.410527    -31.024123  5  3  5 125       
PG22 -11379.854273  23851.304603   2364.494738    182.659098  5  6  5 122       
PG23  26670.051553    205.247495   1712.522451    383.336306  4  8  6 151       
PG24 -17980.244531  -4303.523048 -18873.716944    249.805868  6  6  3 121       
PG25  17088.714727   -157.705666 -19932.064221     68.430878 11  7  8 163       
PG26 -19216.347375   9683.960031  15332.212066     -6.112394  5  6  2 132       
PG27 -19748.321580 -14066.377228  11631.334673    113.129110  6  6  8 125       
PG28  12791.196546 -23079.919985    282.625842    -24.172881  7  7  6  95       
PG29 -25480.861677   4458.192523  -5834.536197     86.479451  7  9  8 122       
PG30 -17664.511553  11544.741421  15707.134543    206.472738  9  6  5  73       
PG31   5033.092470  23155.645229  12052.006637    -56.955160  4  8  6 135       
PG32  14222.241738   6140.385760  21918.968011    126.665857  6  7  8 148       
EOF
